METOP-B                 
1 38771U 12049A   26115.88870630  .00000094  00000+0  62773-4 0  9998
2 38771  98.6550 168.4200 0003383 125.1604 234.9891 14.21432962705831
SARAL                   
1 39086U 13009A   26115.94698599  .00000111  00000+0  56628-4 0  9996
2 39086  98.5566 303.1739 0002991  84.0878 276.0647 14.32842751688123
METOP-C                 
1 43689U 18087A   26115.91074931  .00000093  00000+0  62337-4 0  9999
2 43689  98.6680 176.4605 0000861  40.6957 319.4284 14.21511580387405
OTB-3-GAZELLE           
1 54023U 22127A   26115.90373023  .00000162  00000+0  61698-4 0  9992
2 54023  98.3936 108.4088 0012939 352.1705   7.9281 14.42654920186829
EOS-6 (OCEANSAT-3)      
1 54361U 22158A   26115.95541369  .00000263  00000+0  84191-4 0  9991
2 54361  98.3503 214.8517 0002298 107.7243 252.4201 14.46979063180286
KINEIS-1B               
1 60079U 24114A   26115.94608223  .00000917  00000+0  12654-3 0  9990
2 60079  97.9862 140.3778 0000899 251.9332 108.1782 14.80530504 99674
KINEIS-1C               
1 60081U 24114C   26115.97986940  .00000900  00000+0  12433-3 0  9998
2 60081  97.9881 140.2477 0001747  60.0440 300.0946 14.80533211 99656
KINEIS-1D               
1 60082U 24114D   26115.98746897  .00000609  00000+0  95430-4 0  9990
2 60082  97.9921 136.6888 0002074  51.2712 308.8683 14.76187812 99421
KINEIS-1E               
1 60083U 24114E   26115.25234253 -.00001830  00000+0 -23275-3 0  9995
2 60083  97.9310 139.4409 0002330  62.2351 297.9097 14.80446587 99553
KINEIS-1A               
1 60084U 24114F   26115.96297306  .00000478  00000+0  69309-4 0  9996
2 60084  97.9274 140.2604 0002765 316.0186  44.0806 14.80480723 99669
KINEIS-3C               
1 61220U 24172A   26115.81038813  .00001978  00000+0  32102-3 0  9999
2 61220  98.0410 206.2670 0000824  29.9486 330.1768 14.72281126 85364
KINEIS-3D               
1 61221U 24172B   26115.80359339  .00001996  00000+0  32382-3 0  9998
2 61221  98.0408 206.2715 0000742  41.0536 319.0727 14.72283242 85645
KINEIS-3E               
1 61222U 24172C   26115.85416027  .00001951  00000+0  31668-3 0  9999
2 61222  98.0402 206.3092 0000923  90.5008 269.6305 14.72270742 85657
KINEIS-3A               
1 61223U 24172D   26115.76991401  .00001670  00000+0  27211-3 0  9991
2 61223  98.0402 206.3266 0000870 220.0205 140.0938 14.72296619 85061
KINEIS-3B               
1 61224U 24172E   26115.75290792  .00001674  00000+0  27265-3 0  9999
2 61224  98.0396 206.3362 0001365 188.3227 171.7958 14.72300978 85631
KINEIS-5C               
1 62081U 24219A   26115.93209558 -.00000106  00000+0 -91332-5 0  9992
2 62081  97.9007 276.2512 0005436  90.7114 269.4717 14.72300139 76061
KINEIS-5D               
1 62082U 24219B   26115.89820741  .00000965  00000+0  16015-3 0  9995
2 62082  97.9098 276.1597 0006407  85.0365 275.1575 14.72348566 76060
